8366,GOES 1 (SMS-C),1975,1436.26,-1.0,-,5.65,Inactive,0,GSO,USA,USA,Unknown,Unknown,Unknown,1 08366U 75100A   25125.86730868 -.00000237  00000+0  00000+0 0  9998,2 08366   5.6456 282.5235 0002813 346.0916 186.1505  1.00260368180989,1.00260368,0.0002813,GSO
17561,GOES 7,1987,1441.54,-1.0,-,13.3,Inactive,0,GSO,USA,USA,Unknown,Unknown,Unknown,1 17561U 87022A   25125.46827383 -.00000183  00000+0  00000+0 0  9996,2 17561  13.2985 340.5170 0003181  56.0839 269.7161  0.99892878122887,0.99892878,0.0003181,GSO
26352,GOES 11,2000,1453.89,-1.0,-,10.94,Inactive,0,GSO,USA,USA,Unknown,Unknown,Unknown,1 26352U 00022A   25125.49176094 -.00000140  00000+0  00000+0 0  9991,2 26352  10.9383  50.3110 0002814 254.0099 281.4433  0.99044770 48432,0.9904477,0.0002814,GSO
26871,GOES 12,2001,1452.55,-1.0,-,11.44,Inactive,0,GSO,USA,USA,Unknown,Unknown,Unknown,1 26871U 01031A   25125.75971454 -.00000086  00000+0  00000+0 0  9999,2 26871  11.4419  40.6234 0006775 307.2696 246.1952  0.99135104 86727,0.99135104,0.0006775,GSO
10953,GOES 3,1978,1449.32,-1.0,-,7.83,Inactive,0,GSO,USA,USA,Unknown,Unknown,Unknown,1 10953U 78062A   25125.55114095  .00000045  00000+0  00000+0 0  9993,2 10953   7.8243 302.2458 0000313  42.7906 148.2506  0.99357252124480,0.99357252,3.13e-05,GSO
12472,GOES 5,1981,1435.5,-1.0,-,10.09,Inactive,0,GSO,USA,USA,Unknown,Unknown,Unknown,1 12472U 81049A   25125.47579203 -.00000284  00000+0  00000+0 0  9993,2 12472  10.0910 318.3653 0001859 323.4164  37.7672  1.00313569118767,1.00313569,0.0001859,GSO
14050,GOES 6,1983,1435.93,-1.0,-,10.84,Inactive,0,GSO,USA,USA,Unknown,Unknown,Unknown,1 14050U 83041A   25125.47567679 -.00000283  00000+0  00000+0 0  9994,2 14050  10.8432 323.8985 0001442 203.1639 152.2918  1.00283433211920,1.00283433,0.0001442,GSO
23051,GOES 8,1994,1455.95,-1.0,-,14.08,Inactive,0,GSO,USA,USA,Unknown,Unknown,Unknown,1 23051U 94022A   25125.44423167 -.00000001  00000+0  00000+0 0  9994,2 23051  14.0809  16.7230 0005717  44.1073 181.7809  0.98904751120092,0.98904751,0.0005717,GSO
23581,GOES 9,1995,1457.52,-1.0,-,13.6,Inactive,0,GSO,USA,USA,Unknown,Unknown,Unknown,1 23581U 95025A   25125.68239182 -.00000011  00000+0  00000+0 0  9995,2 23581  13.5993  17.4614 0004417 145.1405  31.4924  0.98797722108733,0.98797722,0.0004417,GSO
29155,EWS-G1 (GOES 13),2006,1457.24,3200.0,B,3.47,Active,1,GSO,USA,USA,Military,Earth Observation,Delta,1 29155U 06018A   25125.42072289  .00000059  00000+0  00000+0 0  9998,2 29155   3.4729  81.3827 0064166 264.9182  94.2885  0.98816422 69352,0.98816422,0.0064166,GSO
35491,GOES 14,2009,1436.1,3200.0,B,0.63,Active,1,GSO,USA,USA,Government,Earth Observation,Delta,1 35491U 09033A   25126.20808865 -.00000073  00000+0  00000+0 0  9999,2 35491   0.6283  88.4013 0000831  43.4609  58.9771  1.00271685 58072,1.00271685,8.31e-05,GEO
