[
  {
    "OBJECT_NAME": "GOES 1 (SMS-C)",
    "OBJECT_ID": "1975-100A",
    "EPOCH": "2025-05-05T20:48:55.469952",
    "MEAN_MOTION": 1.00260368,
    "ECCENTRICITY": 0.0002813,
    "INCLINATION": 5.6456,
    "RA_OF_ASC_NODE": 282.5235,
    "ARG_OF_PERICENTER": 346.0916,
    "MEAN_ANOMALY": 186.1505,
    "EPHEMERIS_TYPE": 0,
    "CLASSIFICATION_TYPE": "U",
    "NORAD_CAT_ID": 8366,
    "ELEMENT_SET_NO": 999,
    "REV_AT_EPOCH": 18098,
    "BSTAR": 0,
    "MEAN_MOTION_DOT": -2.37e-06,
    "MEAN_MOTION_DDOT": 0
  },
  {
    "OBJECT_NAME": "GOES 3",
    "OBJECT_ID": "1978-062A",
    "EPOCH": "2025-05-05T13:13:38.578080",
    "MEAN_MOTION": 0.99357252,
    "ECCENTRICITY": 3.13e-05,
    "INCLINATION": 7.8243,
    "RA_OF_ASC_NODE": 302.2458,
    "ARG_OF_PERICENTER": 42.7906,
    "MEAN_ANOMALY": 148.2506,
    "EPHEMERIS_TYPE": 0,
    "CLASSIFICATION_TYPE": "U",
    "NORAD_CAT_ID": 10953,
    "ELEMENT_SET_NO": 999,
    "REV_AT_EPOCH": 12448,
    "BSTAR": 0,
    "MEAN_MOTION_DOT": 4.5e-07,
    "MEAN_MOTION_DDOT": 0
  },
  {
    "OBJECT_NAME": "GOES 5",
    "OBJECT_ID": "1981-049A",
    "EPOCH": "2025-05-05T11:25:08.431392",
    "MEAN_MOTION": 1.00313569,
    "ECCENTRICITY": 0.0001859,
    "INCLINATION": 10.091,
    "RA_OF_ASC_NODE": 318.3653,
    "ARG_OF_PERICENTER": 323.4164,
    "MEAN_ANOMALY": 37.7672,
    "EPHEMERIS_TYPE": 0,
    "CLASSIFICATION_TYPE": "U",
    "NORAD_CAT_ID": 12472,
    "ELEMENT_SET_NO": 999,
    "REV_AT_EPOCH": 11876,
    "BSTAR": 0,
    "MEAN_MOTION_DOT": -2.84e-06,
    "MEAN_MOTION_DDOT": 0
  },
  {
    "OBJECT_NAME": "GOES 6",
    "OBJECT_ID": "1983-041A",
    "EPOCH": "2025-05-05T11:24:58.474656",
    "MEAN_MOTION": 1.00283433,
    "ECCENTRICITY": 0.0001442,
    "INCLINATION": 10.8432,
    "RA_OF_ASC_NODE": 323.8985,
    "ARG_OF_PERICENTER": 203.1639,
    "MEAN_ANOMALY": 152.2918,
    "EPHEMERIS_TYPE": 0,
    "CLASSIFICATION_TYPE": "U",
    "NORAD_CAT_ID": 14050,
    "ELEMENT_SET_NO": 999,
    "REV_AT_EPOCH": 21192,
    "BSTAR": 0,
    "MEAN_MOTION_DOT": -2.83e-06,
    "MEAN_MOTION_DDOT": 0
  },
  {
    "OBJECT_NAME": "GOES 7",
    "OBJECT_ID": "1987-022A",
    "EPOCH": "2025-05-05T11:14:18.858912",
    "MEAN_MOTION": 0.99892878,
    "ECCENTRICITY": 0.0003181,
    "INCLINATION": 13.2985,
    "RA_OF_ASC_NODE": 340.517,
    "ARG_OF_PERICENTER": 56.0839,
    "MEAN_ANOMALY": 269.7161,
    "EPHEMERIS_TYPE": 0,
    "CLASSIFICATION_TYPE": "U",
    "NORAD_CAT_ID": 17561,
    "ELEMENT_SET_NO": 999,
    "REV_AT_EPOCH": 12288,
    "BSTAR": 0,
    "MEAN_MOTION_DOT": -1.83e-06,
    "MEAN_MOTION_DDOT": 0
  },
  {
    "OBJECT_NAME": "GOES 8",
    "OBJECT_ID": "1994-022A",
    "EPOCH": "2025-05-05T10:39:41.616288",
    "MEAN_MOTION": 0.98904751,
    "ECCENTRICITY": 0.0005717,
    "INCLINATION": 14.0809,
    "RA_OF_ASC_NODE": 16.723,
    "ARG_OF_PERICENTER": 44.1073,
    "MEAN_ANOMALY": 181.7809,
    "EPHEMERIS_TYPE": 0,
    "CLASSIFICATION_TYPE": "U",
    "NORAD_CAT_ID": 23051,
    "ELEMENT_SET_NO": 999,
    "REV_AT_EPOCH": 12009,
    "BSTAR": 0,
    "MEAN_MOTION_DOT": -1e-08,
    "MEAN_MOTION_DDOT": 0
  },
  {
    "OBJECT_NAME": "GOES 9",
    "OBJECT_ID": "1995-025A",
    "EPOCH": "2025-05-05T16:22:38.653248",
    "MEAN_MOTION": 0.98797722,
    "ECCENTRICITY": 0.0004417,
    "INCLINATION": 13.5993,
    "RA_OF_ASC_NODE": 17.4614,
    "ARG_OF_PERICENTER": 145.1405,
    "MEAN_ANOMALY": 31.4924,
    "EPHEMERIS_TYPE": 0,
    "CLASSIFICATION_TYPE": "U",
    "NORAD_CAT_ID": 23581,
    "ELEMENT_SET_NO": 999,
    "REV_AT_EPOCH": 10873,
    "BSTAR": 0,
    "MEAN_MOTION_DOT": -1.1e-07,
    "MEAN_MOTION_DDOT": 0
  },
  {
    "OBJECT_NAME": "GOES 11",
    "OBJECT_ID": "2000-022A",
    "EPOCH": "2025-05-05T11:48:08.145216",
    "MEAN_MOTION": 0.9904477,
    "ECCENTRICITY": 0.0002814,
    "INCLINATION": 10.9383,
    "RA_OF_ASC_NODE": 50.311,
    "ARG_OF_PERICENTER": 254.0099,
    "MEAN_ANOMALY": 281.4433,
    "EPHEMERIS_TYPE": 0,
    "CLASSIFICATION_TYPE": "U",
    "NORAD_CAT_ID": 26352,
    "ELEMENT_SET_NO": 999,
    "REV_AT_EPOCH": 4843,
    "BSTAR": 0,
    "MEAN_MOTION_DOT": -1.4e-06,
    "MEAN_MOTION_DDOT": 0
  },
  {
    "OBJECT_NAME": "GOES 12",
    "OBJECT_ID": "2001-031A",
    "EPOCH": "2025-05-05T18:13:59.336256",
    "MEAN_MOTION": 0.99135104,
    "ECCENTRICITY": 0.0006775,
    "INCLINATION": 11.4419,
    "RA_OF_ASC_NODE": 40.6234,
    "ARG_OF_PERICENTER": 307.2696,
    "MEAN_ANOMALY": 246.1952,
    "EPHEMERIS_TYPE": 0,
    "CLASSIFICATION_TYPE": "U",
    "NORAD_CAT_ID": 26871,
    "ELEMENT_SET_NO": 999,
    "REV_AT_EPOCH": 8672,
    "BSTAR": 0,
    "MEAN_MOTION_DOT": -8.6e-07,
    "MEAN_MOTION_DDOT": 0
  },
  {
    "OBJECT_NAME": "EWS-G1 (GOES 13)",
    "OBJECT_ID": "2006-018A",
    "EPOCH": "2025-05-05T10:05:50.457696",
    "MEAN_MOTION": 0.98816422,
    "ECCENTRICITY": 0.0064166,
    "INCLINATION": 3.4729,
    "RA_OF_ASC_NODE": 81.3827,
    "ARG_OF_PERICENTER": 264.9182,
    "MEAN_ANOMALY": 94.2885,
    "EPHEMERIS_TYPE": 0,
    "CLASSIFICATION_TYPE": "U",
    "NORAD_CAT_ID": 29155,
    "ELEMENT_SET_NO": 999,
    "REV_AT_EPOCH": 6935,
    "BSTAR": 0,
    "MEAN_MOTION_DOT": 5.9e-07,
    "MEAN_MOTION_DDOT": 0
  },
  {
    "OBJECT_NAME": "GOES 14",
    "OBJECT_ID": "2009-033A",
    "EPOCH": "2025-05-06T04:59:38.859360",
    "MEAN_MOTION": 1.00271685,
    "ECCENTRICITY": 8.31e-05,
    "INCLINATION": 0.6283,
    "RA_OF_ASC_NODE": 88.4013,
    "ARG_OF_PERICENTER": 43.4609,
    "MEAN_ANOMALY": 58.9771,
    "EPHEMERIS_TYPE": 0,
    "CLASSIFICATION_TYPE": "U",
    "NORAD_CAT_ID": 35491,
    "ELEMENT_SET_NO": 999,
    "REV_AT_EPOCH": 5807,
    "BSTAR": 0,
    "MEAN_MOTION_DOT": -7.3e-07,
    "MEAN_MOTION_DDOT": 0
  }
]